{
    "radar": {
        "type": "FeatureCollection",
        "features": [
            {
                "type": "Feature",
                "geometry": {
                    "type": "Polygon",
                    "coordinates": [
                        [
                            [
                                -140,
                                50
                            ],
                            [
                                -110,
                                50
                            ],
                            [
                                -110,
                                60
                            ],
                            [
                                -140,
                                60
                            ],
                            [
                                -140,
                                50
                            ]
                        ]
                    ]
                },
                "properties": {
                    "description": "Sample precipitation area (fallback data)"
                }
            }
        ]
    },
    "metars": [
        {
            "stationId": "CYVR",
            "rawOb": "CYVR 301800Z 21010KT 15SM FEW030 BKN100 18/12 A2992",
            "windDir": 210,
            "windSpeed": 10,
            "temp": 18
        }
    ]
}